EUTELSAT 7A             
1 28187U 04008A   25264.56294682  .00000096  00000+0  00000+0 0  9992
2 28187   5.1440  75.2030 0000891 129.4534 219.4881  1.00273359 78654
EUTELSAT 174A           
1 28924U 05052A   25264.54247436  .00000002  00000+0  00000+0 0  9991
2 28924   3.5343  79.8536 0006132 103.9716 186.1704  1.00274721 49635
EUTELSAT HOTBIRD 13B    
1 29270U 06032A   25264.56989483  .00000146  00000+0  00000+0 0  9991
2 29270   0.9628  85.1851 0004061  89.0490  64.7033  1.00271204 44611
EUTELSAT HOTBIRD 13C    
1 33459U 08065A   25264.14874197 -.00000111  00000+0  00000+0 0  9995
2 33459   2.2541  82.3758 0004771 122.1842 196.7726  1.00272042 44646
EUTELSAT 36B            
1 36101U 09065A   25264.58944793  .00000000  00000+0  00000+0 0  9997
2 36101   0.0254  33.8519 0005790 152.8520  76.6911  1.00272306 58012
EUTELSAT KA-SAT 9A      
1 37258U 10069A   25264.58121456  .00000051  00000+0  00000+0 0  9996
2 37258   0.0555 329.2992 0002971 179.2506  70.4140  1.00272802 41314
EUTELSAT 7 WEST A       
1 37816U 11051A   25264.14978198 -.00000073  00000+0  00000+0 0  9998
2 37816   0.0751  23.5675 0005967 163.1678 220.1426  1.00272400 51185
EUTELSAT 16A            
1 37836U 11057A   25264.58268791  .00000093  00000+0  00000+0 0  9996
2 37836   0.0714  19.5915 0005409 159.5359  47.3600  1.00271115  4637
